{
  "type": "FeatureCollection",
  "features": [
    {
      "type": "Feature",
      "properties": {
        "norad_id": 31622,
        "name": "FENGYUN 1C DEB",
        "group": "fengyun-1c-debris",
        "lat": 81.04672837863939,
        "lon": -1.5200669139380478,
        "alt_km": 761.6475890562324,
        "timestamp": "2025-12-09T21:34:11.691631+00:00",
        "meta_object_name": "FENGYUN 1C DEB",
        "meta_object_id": "1999-025CAC",
        "meta_epoch": "2025-12-07T05:47:33.930816",
        "meta_mean_motion": 14.3708847,
        "meta_eccentricity": 0.00149479,
        "meta_inclination": 98.817,
        "meta_ra_of_asc_node": 75.879,
        "meta_arg_of_pericenter": 0.1509,
        "meta_mean_anomaly": 27.7492,
        "meta_ephemeris_type": 0,
        "meta_classification_type": "U",
        "meta_norad_cat_id": 31622,
        "meta_element_set_no": 999,
        "meta_rev_at_epoch": 95693,
        "meta_bstar": 0.0031264512,
        "meta_mean_motion_dot": 9.261e-05,
        "meta_mean_motion_ddot": 0,
        "tle_line1": "1 31622U 99025CAC 25341.24136494  .00009261  00000+0  31265-2 0  9993",
        "tle_line2": "2 31622  98.8170  75.8790 0014947   0.1509  27.7492 14.37088470956930"
      },
      "geometry": {
        "type": "Point",
        "coordinates": [
          -1.5200669139380478,
          81.04672837863939
        ]
      }
    },
    {
      "type": "Feature",
      "properties": {
        "norad_id": 31623,
        "name": "FENGYUN 1C DEB",
        "group": "fengyun-1c-debris",
        "lat": -38.88091872870442,
        "lon": 9.809106074303681,
        "alt_km": 1090.168846427502,
        "timestamp": "2025-12-09T21:34:11.691642+00:00",
        "meta_object_name": "FENGYUN 1C DEB",
        "meta_object_id": "1999-025CAD",
        "meta_epoch": "2025-12-02T20:02:22.350624",
        "meta_mean_motion": 13.82580933,
        "meta_eccentricity": 0.01951152,
        "meta_inclination": 97.6304,
        "meta_ra_of_asc_node": 190.283,
        "meta_arg_of_pericenter": 33.7651,
        "meta_mean_anomaly": 327.5758,
        "meta_ephemeris_type": 0,
        "meta_classification_type": "U",
        "meta_norad_cat_id": 31623,
        "meta_element_set_no": 999,
        "meta_rev_at_epoch": 57783,
        "meta_bstar": 0.00047153491,
        "meta_mean_motion_dot": 5.61e-06,
        "meta_mean_motion_ddot": 0,
        "tle_line1": "1 31623U 99025CAD 25336.83498091  .00000561  00000+0  47153-3 0  9995",
        "tle_line2": "2 31623  97.6304 190.2830 0195115  33.7651 327.5758 13.82580933577835"
      },
      "geometry": {
        "type": "Point",
        "coordinates": [
          9.809106074303681,
          -38.88091872870442
        ]
      }
    },
    {
      "type": "Feature",
      "properties": {
        "norad_id": 31625,
        "name": "FENGYUN 1C DEB",
        "group": "fengyun-1c-debris",
        "lat": -60.109093617433004,
        "lon": -125.87654902178731,
        "alt_km": 799.4000490349836,
        "timestamp": "2025-12-09T21:34:11.691652+00:00",
        "meta_object_name": "FENGYUN 1C DEB",
        "meta_object_id": "1999-025CAF",
        "meta_epoch": "2025-12-09T12:16:17.932224",
        "meta_mean_motion": 14.55391454,
        "meta_eccentricity": 0.01494953,
        "meta_inclination": 98.8063,
        "meta_ra_of_asc_node": 69.361,
        "meta_arg_of_pericenter": 25.5722,
        "meta_mean_anomaly": 348.0106,
        "meta_ephemeris_type": 0,
        "meta_classification_type": "U",
        "meta_norad_cat_id": 31625,
        "meta_element_set_no": 999,
        "meta_rev_at_epoch": 98346,
        "meta_bstar": 0.00025680837,
        "meta_mean_motion_dot": 1.237e-05,
        "meta_mean_motion_ddot": 0,
        "tle_line1": "1 31625U 99025CAF 25343.51131866  .00001237  00000+0  25681-3 0  9997",
        "tle_line2": "2 31625  98.8063  69.3610 0149495  25.5722 348.0106 14.55391454983466"
      },
      "geometry": {
        "type": "Point",
        "coordinates": [
          -125.87654902178731,
          -60.109093617433004
        ]
      }
    },
    {
      "type": "Feature",
      "properties": {
        "norad_id": 31627,
        "name": "FENGYUN 1C DEB",
        "group": "fengyun-1c-debris",
        "lat": -41.37601720968436,
        "lon": 39.401771445206556,
        "alt_km": 813.6457087535173,
        "timestamp": "2025-12-09T21:34:11.691662+00:00",
        "meta_object_name": "FENGYUN 1C DEB",
        "meta_object_id": "1999-025CAH",
        "meta_epoch": "2025-11-26T09:13:22.975680",
        "meta_mean_motion": 14.35408996,
        "meta_eccentricity": 0.00515931,
        "meta_inclination": 98.5313,
        "meta_ra_of_asc_node": 18.4415,
        "meta_arg_of_pericenter": 201.9005,
        "meta_mean_anomaly": 157.9975,
        "meta_ephemeris_type": 0,
        "meta_classification_type": "U",
        "meta_norad_cat_id": 31627,
        "meta_element_set_no": 999,
        "meta_rev_at_epoch": 64532,
        "meta_bstar": 0.0013473839,
        "meta_mean_motion_dot": 3.885e-05,
        "meta_mean_motion_ddot": 0,
        "tle_line1": "1 31627U 99025CAH 25330.38429370  .00003885  00000+0  13474-2 0  9997",
        "tle_line2": "2 31627  98.5313  18.4415 0051593 201.9005 157.9975 14.35408996645325"
      },
      "geometry": {
        "type": "Point",
        "coordinates": [
          39.401771445206556,
          -41.37601720968436
        ]
      }
    },
    {
      "type": "Feature",
      "properties": {
        "norad_id": 31628,
        "name": "FENGYUN 1C DEB",
        "group": "fengyun-1c-debris",
        "lat": 55.5304089169004,
        "lon": 179.37302969075137,
        "alt_km": 1056.0890922579947,
        "timestamp": "2025-12-09T21:34:11.691672+00:00",
        "meta_object_name": "FENGYUN 1C DEB",
        "meta_object_id": "1999-025CAJ",
        "meta_epoch": "2025-12-08T21:02:40.900128",
        "meta_mean_motion": 13.86802576,
        "meta_eccentricity": 0.0169315,
        "meta_inclination": 102.2693,
        "meta_ra_of_asc_node": 196.5172,
        "meta_arg_of_pericenter": 229.4332,
        "meta_mean_anomaly": 129.1969,
        "meta_ephemeris_type": 0,
        "meta_classification_type": "U",
        "meta_norad_cat_id": 31628,
        "meta_element_set_no": 999,
        "meta_rev_at_epoch": 93246,
        "meta_bstar": 0.0029107,
        "meta_mean_motion_dot": 3.734e-05,
        "meta_mean_motion_ddot": 0,
        "tle_line1": "1 31628U 99025CAJ 25342.87686227  .00003734  00000+0  29107-2 0  9994",
        "tle_line2": "2 31628 102.2693 196.5172 0169315 229.4332 129.1969 13.86802576932463"
      },
      "geometry": {
        "type": "Point",
        "coordinates": [
          179.37302969075137,
          55.5304089169004
        ]
      }
    },
    {
      "type": "Feature",
      "properties": {
        "norad_id": 31629,
        "name": "FENGYUN 1C DEB",
        "group": "fengyun-1c-debris",
        "lat": 23.333953036264187,
        "lon": 23.495360448244195,
        "alt_km": 769.309482689715,
        "timestamp": "2025-12-09T21:34:11.691687+00:00",
        "meta_object_name": "FENGYUN 1C DEB",
        "meta_object_id": "1999-025CAK",
        "meta_epoch": "2025-12-09T09:34:38.402112",
        "meta_mean_motion": 14.14576553,
        "meta_eccentricity": 0.01038704,
        "meta_inclination": 102.1327,
        "meta_ra_of_asc_node": 28.1431,
        "meta_arg_of_pericenter": 35.9013,
        "meta_mean_anomaly": 324.907,
        "meta_ephemeris_type": 0,
        "meta_classification_type": "U",
        "meta_norad_cat_id": 31629,
        "meta_element_set_no": 999,
        "meta_rev_at_epoch": 94399,
        "meta_bstar": 0.0030640345,
        "meta_mean_motion_dot": 6.133e-05,
        "meta_mean_motion_ddot": 0,
        "tle_line1": "1 31629U 99025CAK 25343.39905558  .00006133  00000+0  30640-2 0  9994",
        "tle_line2": "2 31629 102.1327  28.1431 0103870  35.9013 324.9070 14.14576553943998"
      },
      "geometry": {
        "type": "Point",
        "coordinates": [
          23.495360448244195,
          23.333953036264187
        ]
      }
    },
    {
      "type": "Feature",
      "properties": {
        "norad_id": 31630,
        "name": "FENGYUN 1C DEB",
        "group": "fengyun-1c-debris",
        "lat": 39.3962793704048,
        "lon": -22.007090934663545,
        "alt_km": 623.8768761406773,
        "timestamp": "2025-12-09T21:34:11.691699+00:00",
        "meta_object_name": "FENGYUN 1C DEB",
        "meta_object_id": "1999-025CAL",
        "meta_epoch": "2025-12-07T05:10:38.963136",
        "meta_mean_motion": 15.0602354,
        "meta_eccentricity": 0.01663307,
        "meta_inclination": 98.0898,
        "meta_ra_of_asc_node": 148.4684,
        "meta_arg_of_pericenter": 15.1076,
        "meta_mean_anomaly": 345.503,
        "meta_ephemeris_type": 0,
        "meta_classification_type": "U",
        "meta_norad_cat_id": 31630,
        "meta_element_set_no": 999,
        "meta_rev_at_epoch": 98507,
        "meta_bstar": 0.0011550566,
        "meta_mean_motion_dot": 0.00023057,
        "meta_mean_motion_ddot": 0,
        "tle_line1": "1 31630U 99025CAL 25341.21572874  .00023057  00000+0  11551-2 0  9990",
        "tle_line2": "2 31630  98.0898 148.4684 0166330  15.1076 345.5030 15.06023540985076"
      },
      "geometry": {
        "type": "Point",
        "coordinates": [
          -22.007090934663545,
          39.3962793704048
        ]
      }
    }
  ]
}